NORAD_CAT_ID,OBJECT_NAME,OBJECT_TYPE,EPOCH,MEAN_MOTION,ECCENTRICITY,INCLINATION,RA_OF_ASC_NODE,ARG_OF_PERICENTER,MEAN_ANOMALY,BSTAR,MEAN_MOTION_DOT,MEAN_MOTION_DDOT,TLE_LINE0,TLE_LINE1,TLE_LINE2,SEMIMAJOR_AXIS,PERIOD,APOGEE,PERIGEE,DECAYED
49138.0,STARLINK-3058,PAYLOAD,2021-12-05 22:00:00,15.32801618,0.0003329,70.0002,256.2409,274.7764,216.635,-0.022473,-0.00663256,0.0,0 STARLINK-3058,1 49138U 21082J   21339.91667824 -.00663256  00000-0 -22473-1 0  9998,2 49138  70.0002 256.2409 0003329 274.7764 216.6350 15.32801618  3661,6845.595,93.946,469.739,465.181,0.0
49138.0,STARLINK-3058,PAYLOAD,2021-12-06 06:00:00,15.32329406,0.0003275,70.0,255.3558,265.0443,264.9047,-0.022493,-0.0065467,0.0,0 STARLINK-3058,1 49138U 21082J   21340.25001157 -.00654670  00000-0 -22493-1 0  9990,2 49138  70.0000 255.3558 0003275 265.0443 264.9047 15.32329406 13098,6847.001,93.975,471.109,466.624,0.0
49138.0,STARLINK-3058,PAYLOAD,2021-12-06 14:00:01,15.31863664,0.0003261,70.0,254.4712,261.5106,306.4769,-0.022918,-0.00657171,0.0,0 STARLINK-3058,1 49138U 21082J   21340.58335648 -.00657171  00000-0 -22918-1 0  9992,2 49138  70.0000 254.4712 0003261 261.5106 306.4769 15.31863664  3665,6848.389,94.003,472.487,468.021,0.0
49138.0,STARLINK-3058,PAYLOAD,2021-12-06 22:00:00,15.31398041,0.0003223,70.0002,253.5874,271.6165,333.7214,-0.02339,-0.0066073,0.0,0 STARLINK-3058,1 49138U 21082J   21340.91667824 -.00660730  00000-0 -23390-1 0  9993,2 49138  70.0002 253.5874 0003223 271.6165 333.7214 15.31398041  3661,6849.776999999999,94.032,473.85,469.435,0.0
49138.0,STARLINK-3058,PAYLOAD,2021-12-07 06:00:00,15.30929159,0.0003327,69.9999,252.704,261.6952,20.4972,-0.023628,-0.00657977,0.0,0 STARLINK-3058,1 49138U 21082J   21341.25001157 -.00657977  00000-0 -23628-1 0  9995,2 49138  69.9999 252.7040 0003327 261.6952  20.4972 15.30929159 13242,6851.176,94.061,475.32,470.761,0.0
49138.0,STARLINK-3058,PAYLOAD,2021-12-07 14:00:01,15.30460681,0.0003379,70.0001,251.8216,261.7893,56.6972,-0.023935,-0.00656962,0.0,0 STARLINK-3058,1 49138U 21082J   21341.58334491 -.00656962  00000-0 -23935-1 0  9995,2 49138  70.0001 251.8216 0003379 261.7893  56.6972 15.30460681  3651,6852.574000000001,94.089,476.754,472.12300000000016,0.0
49138.0,STARLINK-3058,PAYLOAD,2021-12-07 22:00:00,15.29996492,0.0003394,70.0003,250.9396,270.81,83.4081,-0.024492,-0.00662244,0.0,0 STARLINK-3058,1 49138U 21082J   21341.91667824 -.00662244  00000-0 -24492-1 0  9990,2 49138  70.0003 250.9396 0003394 270.8100  83.4081 15.29996492  3652,6853.96,94.118,478.151,473.499,0.0
49138.0,STARLINK-3058,PAYLOAD,2021-12-08 06:00:02,15.2952729,0.0003473,69.9998,250.0582,263.4215,126.0328,-0.024693,-0.00658357,0.0,0 STARLINK-3058,1 49138U 21082J   21342.25002315 -.00658357  00000-0 -24693-1 0  9999,2 49138  69.9998 250.0582 0003473 263.4215 126.0328 15.29527290 13401,6855.361,94.147,479.607,474.846,0.0
49138.0,STARLINK-3058,PAYLOAD,2021-12-08 14:00:01,15.29057932,0.000344,70.0001,249.1776,263.2068,160.7966,-0.024979,-0.00656538,0.0,0 STARLINK-3058,1 49138U 21082J   21342.58334491 -.00656538  00000-0 -24979-1 0  9994,2 49138  70.0001 249.1776 0003440 263.2068 160.7966 15.29057932  3651,6856.764,94.176,480.98800000000006,476.27,0.0
49138.0,STARLINK-3058,PAYLOAD,2021-12-08 22:00:00,15.28593946,0.0003365,70.0002,248.2977,274.0711,183.982,-0.025597,-0.00662766,0.0,0 STARLINK-3058,1 49138U 21082J   21342.91667824 -.00662766  00000-0 -25597-1 0  9997,2 49138  70.0002 248.2977 0003365 274.0711 183.9820 15.28593946  3640,6858.151999999999,94.204,482.324,477.709,0.0
49138.0,STARLINK-3058,PAYLOAD,2021-12-09 06:00:00,15.28124138,0.0003324,69.9997,247.418,267.0155,224.5284,-0.025753,-0.0065764,0.0,0 STARLINK-3058,1 49138U 21082J   21343.25001157 -.00657640  00000-0 -25753-1 0  9995,2 49138  69.9997 247.4180 0003324 267.0155 224.5284 15.28124138 13556,6859.557,94.233,483.702,479.142,0.0
49138.0,STARLINK-3058,PAYLOAD,2021-12-09 19:34:41,15.28563867,0.0005111,69.9958,245.9157,275.8176,84.2415,-0.0062007,-0.0016912,0.0,0 STARLINK-3058,1 49138U 21082J   21343.81575828 -.00169120  00000-0 -62007-2 0  9993,2 49138  69.9958 245.9157 0005111 275.8176  84.2415 15.28563867 13649,6858.2419999999975,94.206,483.612,476.601,0.0
49138.0,STARLINK-3058,PAYLOAD,2021-12-10 14:00:01,15.26252651,0.0003244,69.9999,243.9065,264.7506,355.149,-0.027155,-0.00655189,0.0,0 STARLINK-3058,1 49138U 21082J   21344.58334491 -.00655189  00000-0 -27155-1 0  9996,2 49138  69.9999 243.9065 0003244 264.7506 355.1490 15.26252651  3656,6865.1640000000025,94.349,489.256,484.801,0.0
49138.0,STARLINK-3058,PAYLOAD,2021-12-10 22:00:00,15.25786897,0.0003251,70.0002,243.0303,273.6219,16.9642,-0.027689,-0.00658482,0.0,0 STARLINK-3058,1 49138U 21082J   21344.91667824 -.00658482  00000-0 -27689-1 0  9993,2 49138  70.0002 243.0303 0003251 273.6219  16.9642 15.25786897  3641,6866.561,94.378,490.658,486.193,0.0
49138.0,STARLINK-3058,PAYLOAD,2021-12-11 14:00:01,15.2484919,0.0003383,69.9999,241.2795,264.3131,85.9664,-0.028267,-0.00653872,0.0,0 STARLINK-3058,1 49138U 21082J   21345.58334491 -.00653872  00000-0 -28267-1 0  9999,2 49138  69.9999 241.2795 0003383 264.3131  85.9664 15.24849190 13910,6869.375,94.436,493.564,488.916,0.0
49138.0,STARLINK-3058,PAYLOAD,2021-12-11 22:00:00,15.24385208,0.0003382,70.0003,240.4051,273.6947,105.5889,-0.028951,-0.00659978,0.0,0 STARLINK-3058,1 49138U 21082J   21345.91667824 -.00659978  00000-0 -28951-1 0  9998,2 49138  70.0003 240.4051 0003382 273.6947 105.5889 15.24385208  3644,6870.769,94.464,494.958,490.31,0.0
49138.0,STARLINK-3058,PAYLOAD,2021-12-12 14:00:01,15.23447984,0.0003376,69.9999,238.6581,265.8766,169.7362,-0.029584,-0.00656082,0.0,0 STARLINK-3058,1 49138U 21082J   21346.58334491 -.00656082  00000-0 -29584-1 0  9999,2 49138  69.9999 238.6581 0003376 265.8766 169.7362 15.23447984 14062,6873.587,94.522,497.772,493.131,0.0
49138.0,STARLINK-3058,PAYLOAD,2021-12-12 22:00:01,15.22982494,0.0003316,70.0002,237.7856,272.9658,190.0333,-0.030193,-0.00660069,0.0,0 STARLINK-3058,1 49138U 21082J   21346.91668981 -.00660069  00000-0 -30193-1 0  9998,2 49138  70.0002 237.7856 0003316 272.9658 190.0333 15.22982494  3622,6874.986999999999,94.551,499.132,494.573,0.0
49138.0,STARLINK-3058,PAYLOAD,2021-12-13 14:00:01,15.22047421,0.0003251,69.9998,236.0424,264.7961,251.104,-0.031,-0.00659248,0.0,0 STARLINK-3058,1 49138U 21082J   21347.58334491 -.00659248  00000-0 -31000-1 0  9993,2 49138  69.9998 236.0424 0003251 264.7961 251.1040 15.22047421 14213,6877.803000000001,94.609,501.904,497.432,0.0
49138.0,STARLINK-3058,PAYLOAD,2021-12-13 22:00:00,15.21578777,0.0003179,70.0001,235.1716,274.7576,266.7847,-0.031363,-0.00657901,0.0,0 STARLINK-3058,1 49138U 21082J   21347.91667824 -.00657901  00000-0 -31363-1 0  9995,2 49138  70.0001 235.1716 0003179 274.7576 266.7847 15.21578777  3652,6879.215,94.639,503.267,498.893,0.0
49138.0,STARLINK-3058,PAYLOAD,2021-12-14 14:00:01,15.20644754,0.0003197,69.9998,233.4321,262.7963,328.3463,-0.032291,-0.00658952,0.0,0 STARLINK-3058,1 49138U 21082J   21348.58334491 -.00658952  00000-0 -32291-1 0  9998,2 49138  69.9998 233.4321 0003197 262.7963 328.3463 15.20644754  3640,6882.031999999997,94.697,506.097,501.696,0.0
49138.0,STARLINK-3058,PAYLOAD,2021-12-14 22:00:00,15.20175652,0.0003171,70.0001,232.5633,268.9199,346.1829,-0.032597,-0.00656322,0.0,0 STARLINK-3058,1 49138U 21082J   21348.91667824 -.00656322  00000-0 -32597-1 0  9992,2 49138  70.0001 232.5633 0003171 268.9199 346.1829 15.20175652 14412,6883.446999999999,94.726,507.495,503.13,0.0
49138.0,STARLINK-3058,PAYLOAD,2021-12-15 14:22:36,15.19218263,0.0003363,69.9999,230.7868,263.3463,123.7419,-0.033474,-0.00655521,0.0,0 STARLINK-3058,1 49138U 21082J   21349.59902778 -.00655521  00000-0 -33474-1 0  9992,2 49138  69.9999 230.7868 0003363 263.3463 123.7419 15.19218263  3642,6886.339,94.786,510.52,505.888,0.0
49138.0,STARLINK-3058,PAYLOAD,2021-12-15 22:00:01,15.18773768,0.000328,70.0001,229.9606,267.1686,56.5118,-0.033986,-0.00656898,0.0,0 STARLINK-3058,1 49138U 21082J   21349.91668981 -.00656898  00000-0 -33986-1 0  9999,2 49138  70.0001 229.9606 0003280 267.1686  56.5118 15.18773768 14574,6887.682,94.813,511.807,507.288,0.0
49138.0,STARLINK-3058,PAYLOAD,2021-12-16 14:00:01,15.17837535,0.0003366,69.9999,228.2286,261.1763,105.3146,-0.034813,-0.00655062,0.0,0 STARLINK-3058,1 49138U 21082J   21350.58334491 -.00655062  00000-0 -34813-1 0  9992,2 49138  69.9999 228.2286 0003366 261.1763 105.3146 15.17837535  3639,6890.514,94.872,514.6990000000002,510.06,0.0
49138.0,STARLINK-3058,PAYLOAD,2021-12-16 21:53:29,15.18646535,0.0003114,69.9978,227.366,244.0338,116.0511,-0.0096716,-0.00195679,0.0,0 STARLINK-3058,1 49138U 21082J   21350.91214443 -.00195679  00000-0 -96716-2 0  9997,2 49138  69.9978 227.3660 0003114 244.0338 116.0511 15.18646535 14727,6888.066999999999,94.821,512.077,507.787,0.0
49138.0,STARLINK-3058,PAYLOAD,2021-12-17 05:48:10,15.1818008,0.0003401,69.9981,226.5102,273.7407,86.3373,-0.0092293,-0.00184528,0.0,0 STARLINK-3058,1 49138U 21082J   21351.24179246 -.00184528  00000-0 -92293-2 0  9992,2 49138  69.9981 226.5102 0003401 273.7407  86.3373 15.18180080 14776,6889.478,94.85,513.686,509.0,0.0
49138.0,STARLINK-3058,PAYLOAD,2021-12-17 06:00:00,15.16905612,0.0003403,69.9999,226.499,259.8746,147.2459,-0.036037,-0.0066694999999999,0.0,0 STARLINK-3058,1 49138U 21082J   21351.25001157 -.00666950  00000-0 -36037-1 0  9995,2 49138  69.9999 226.4990 0003403 259.8746 147.2459 15.16905612 14778,6893.3359999999975,94.93,517.547,512.856,0.0
49138.0,STARLINK-3058,PAYLOAD,2021-12-17 14:00:01,15.16435711,0.0003355,70.0,225.6352,262.1089,164.5501,-0.036302,-0.00663121,0.0,0 STARLINK-3058,1 49138U 21082J   21351.58335648 -.00663121  00000-0 -36302-1 0  9998,2 49138  70.0000 225.6352 0003355 262.1089 164.5501 15.16435711 14824,6894.76,94.96,518.938,514.312,0.0
